0 BREEZE-M DEB
1 34235U 06006BA  13294.72377952  .00005309  00000-0  52978-2 0  5198
2 34235 051.6346 242.9434 5090181 072.1482 336.3451 05.29999721105745
0 BREEZE-M DEB
1 34235U 06006BA  13294.73745726  .00005547  00000-0  54843-2 0  5206
2 34235 051.6518 242.9408 5090836 072.1411 002.4154 05.30005626105741
0 BREEZE-M DEB
1 34235U 06006BA  13295.11819604  .00004852  00000-0  48224-2 0  5211
2 34235 051.6510 242.6520 5090442 072.3707 008.8462 05.30010368105761
0 BREEZE-M DEB
1 34235U 06006BA  13296.05486954  .00004649  00000-0  46207-2 0  5227
2 34235 051.6501 241.9583 5090341 072.8890 356.0271 05.30026174105812
